STARLINK-36034          
1 66609U 25270X   25335.66671295 -.01691638  00000+0 -85624-2 0  9995
2 66609  42.9989 258.8310 0001622 261.3925 336.8441 15.83665773  2468
STARLINK-35680          
1 66610U 25270Y   25335.75003471 -.01731317  00000+0 -89162-2 0  9992
2 66610  42.9989 258.3144 0001703 256.7919  98.9941 15.83383649  2742
STARLINK-35583          
1 66611U 25270Z   25335.75003471 -.01741105  00000+0 -89650-2 0  9991
2 66611  42.9989 258.3095 0001738 261.6193  96.0499 15.83406212  2744
STARLINK-36039          
1 66612U 25270AA  25335.75003471 -.01798186  00000+0 -90796-2 0  9996
2 66612  42.9986 258.3039 0001667 265.3168  94.5591 15.83404731  2632
STARLINK-36037          
1 66613U 25270AB  25335.75003471 -.01806358  00000+0 -91242-2 0  9995
2 66613  42.9987 258.2988 0001756 259.3613 102.5682 15.83408930  2639
STARLINK-36040          
1 66614U 25270AC  25335.75003471 -.01823456  00000+0 -92068-2 0  9991
2 66614  42.9987 258.2890 0001690 260.3971 105.3783 15.83445621  2471
STARLINK-35988          
1 66615U 25270AD  25335.75003471 -.01817094  00000+0 -91831-2 0  9990
2 66615  42.9987 258.2936 0001733 259.5387 104.4515 15.83415826  2479
STARLINK-35391          
1 66616U 25270AE  25335.75003471 -.01831700  00000+0 -92499-2 0  9992
2 66616  42.9988 258.2841 0001713 262.9224 104.8599 15.83455157  2749
COSMOS 2597 (RODNIK-S *)
1 66647U 25273A   25335.84008538  .00000003  00000+0 -46800-4 0  9997
2 66647  82.4980 293.2183 0008181 314.6636  45.3776 12.41951058   780
COSMOS 2598 (RODNIK-S *)
1 66648U 25273B   25335.91911628 -.00000029  00000+0 -27986-3 0  9991
2 66648  82.5022 293.1751 0008260 303.1461  56.8825 12.42253016   799
