CCSDS_OMM_VERS = 2.0
CREATION_DATE  = 
ORIGINATOR     = 

OBJECT_NAME    = STARLINK-36034
OBJECT_ID      = 2025-270X
CENTER_NAME    = EARTH
REF_FRAME      = TEME
TIME_SYSTEM    = UTC
MEAN_ELEMENT_THEORY = SGP/SGP4

EPOCH          = 2025-12-01T16:00:03.998880
MEAN_MOTION    = 15.83665773
ECCENTRICITY   = .0001622
INCLINATION    = 42.9989
RA_OF_ASC_NODE = 258.8310
ARG_OF_PERICENTER = 261.3925
MEAN_ANOMALY   = 336.8441

EPHEMERIS_TYPE = 0
CLASSIFICATION_TYPE = U
NORAD_CAT_ID   = 66609
ELEMENT_SET_NO = 999
REV_AT_EPOCH   = 246
BSTAR          = -.85624E-2
MEAN_MOTION_DOT = -.1691638E-1
MEAN_MOTION_DDOT = 0

CCSDS_OMM_VERS = 2.0
CREATION_DATE  = 
ORIGINATOR     = 

OBJECT_NAME    = STARLINK-35680
OBJECT_ID      = 2025-270Y
CENTER_NAME    = EARTH
REF_FRAME      = TEME
TIME_SYSTEM    = UTC
MEAN_ELEMENT_THEORY = SGP/SGP4

EPOCH          = 2025-12-01T18:00:02.998944
MEAN_MOTION    = 15.83383649
ECCENTRICITY   = .0001703
INCLINATION    = 42.9989
RA_OF_ASC_NODE = 258.3144
ARG_OF_PERICENTER = 256.7919
MEAN_ANOMALY   = 98.9941

EPHEMERIS_TYPE = 0
CLASSIFICATION_TYPE = U
NORAD_CAT_ID   = 66610
ELEMENT_SET_NO = 999
REV_AT_EPOCH   = 274
BSTAR          = -.89162E-2
MEAN_MOTION_DOT = -.1731317E-1
MEAN_MOTION_DDOT = 0

CCSDS_OMM_VERS = 2.0
CREATION_DATE  = 
ORIGINATOR     = 

OBJECT_NAME    = STARLINK-35583
OBJECT_ID      = 2025-270Z
CENTER_NAME    = EARTH
REF_FRAME      = TEME
TIME_SYSTEM    = UTC
MEAN_ELEMENT_THEORY = SGP/SGP4

EPOCH          = 2025-12-01T18:00:02.998944
MEAN_MOTION    = 15.83406212
ECCENTRICITY   = .0001738
INCLINATION    = 42.9989
RA_OF_ASC_NODE = 258.3095
ARG_OF_PERICENTER = 261.6193
MEAN_ANOMALY   = 96.0499

EPHEMERIS_TYPE = 0
CLASSIFICATION_TYPE = U
NORAD_CAT_ID   = 66611
ELEMENT_SET_NO = 999
REV_AT_EPOCH   = 274
BSTAR          = -.8965E-2
MEAN_MOTION_DOT = -.1741105E-1
MEAN_MOTION_DDOT = 0

CCSDS_OMM_VERS = 2.0
CREATION_DATE  = 
ORIGINATOR     = 

OBJECT_NAME    = STARLINK-36039
OBJECT_ID      = 2025-270AA
CENTER_NAME    = EARTH
REF_FRAME      = TEME
TIME_SYSTEM    = UTC
MEAN_ELEMENT_THEORY = SGP/SGP4

EPOCH          = 2025-12-01T18:00:02.998944
MEAN_MOTION    = 15.83404731
ECCENTRICITY   = .0001667
INCLINATION    = 42.9986
RA_OF_ASC_NODE = 258.3039
ARG_OF_PERICENTER = 265.3168
MEAN_ANOMALY   = 94.5591

EPHEMERIS_TYPE = 0
CLASSIFICATION_TYPE = U
NORAD_CAT_ID   = 66612
ELEMENT_SET_NO = 999
REV_AT_EPOCH   = 263
BSTAR          = -.90796E-2
MEAN_MOTION_DOT = -.1798186E-1
MEAN_MOTION_DDOT = 0

CCSDS_OMM_VERS = 2.0
CREATION_DATE  = 
ORIGINATOR     = 

OBJECT_NAME    = STARLINK-36037
OBJECT_ID      = 2025-270AB
CENTER_NAME    = EARTH
REF_FRAME      = TEME
TIME_SYSTEM    = UTC
MEAN_ELEMENT_THEORY = SGP/SGP4

EPOCH          = 2025-12-01T18:00:02.998944
MEAN_MOTION    = 15.83408930
ECCENTRICITY   = .0001756
INCLINATION    = 42.9987
RA_OF_ASC_NODE = 258.2988
ARG_OF_PERICENTER = 259.3613
MEAN_ANOMALY   = 102.5682

EPHEMERIS_TYPE = 0
CLASSIFICATION_TYPE = U
NORAD_CAT_ID   = 66613
ELEMENT_SET_NO = 999
REV_AT_EPOCH   = 263
BSTAR          = -.91242E-2
MEAN_MOTION_DOT = -.1806358E-1
MEAN_MOTION_DDOT = 0

CCSDS_OMM_VERS = 2.0
CREATION_DATE  = 
ORIGINATOR     = 

OBJECT_NAME    = STARLINK-36040
OBJECT_ID      = 2025-270AC
CENTER_NAME    = EARTH
REF_FRAME      = TEME
TIME_SYSTEM    = UTC
MEAN_ELEMENT_THEORY = SGP/SGP4

EPOCH          = 2025-12-01T18:00:02.998944
MEAN_MOTION    = 15.83445621
ECCENTRICITY   = .000169
INCLINATION    = 42.9987
RA_OF_ASC_NODE = 258.2890
ARG_OF_PERICENTER = 260.3971
MEAN_ANOMALY   = 105.3783

EPHEMERIS_TYPE = 0
CLASSIFICATION_TYPE = U
NORAD_CAT_ID   = 66614
ELEMENT_SET_NO = 999
REV_AT_EPOCH   = 247
BSTAR          = -.92068E-2
MEAN_MOTION_DOT = -.1823456E-1
MEAN_MOTION_DDOT = 0

CCSDS_OMM_VERS = 2.0
CREATION_DATE  = 
ORIGINATOR     = 

OBJECT_NAME    = STARLINK-35988
OBJECT_ID      = 2025-270AD
CENTER_NAME    = EARTH
REF_FRAME      = TEME
TIME_SYSTEM    = UTC
MEAN_ELEMENT_THEORY = SGP/SGP4

EPOCH          = 2025-12-01T18:00:02.998944
MEAN_MOTION    = 15.83415826
ECCENTRICITY   = .0001733
INCLINATION    = 42.9987
RA_OF_ASC_NODE = 258.2936
ARG_OF_PERICENTER = 259.5387
MEAN_ANOMALY   = 104.4515

EPHEMERIS_TYPE = 0
CLASSIFICATION_TYPE = U
NORAD_CAT_ID   = 66615
ELEMENT_SET_NO = 999
REV_AT_EPOCH   = 247
BSTAR          = -.91831E-2
MEAN_MOTION_DOT = -.1817094E-1
MEAN_MOTION_DDOT = 0

CCSDS_OMM_VERS = 2.0
CREATION_DATE  = 
ORIGINATOR     = 

OBJECT_NAME    = STARLINK-35391
OBJECT_ID      = 2025-270AE
CENTER_NAME    = EARTH
REF_FRAME      = TEME
TIME_SYSTEM    = UTC
MEAN_ELEMENT_THEORY = SGP/SGP4

EPOCH          = 2025-12-01T18:00:02.998944
MEAN_MOTION    = 15.83455157
ECCENTRICITY   = .0001713
INCLINATION    = 42.9988
RA_OF_ASC_NODE = 258.2841
ARG_OF_PERICENTER = 262.9224
MEAN_ANOMALY   = 104.8599

EPHEMERIS_TYPE = 0
CLASSIFICATION_TYPE = U
NORAD_CAT_ID   = 66616
ELEMENT_SET_NO = 999
REV_AT_EPOCH   = 274
BSTAR          = -.92499E-2
MEAN_MOTION_DOT = -.18317E-1
MEAN_MOTION_DDOT = 0

CCSDS_OMM_VERS = 2.0
CREATION_DATE  = 
ORIGINATOR     = 

OBJECT_NAME    = COSMOS 2597 (RODNIK-S 22)
OBJECT_ID      = 2025-273A
CENTER_NAME    = EARTH
REF_FRAME      = TEME
TIME_SYSTEM    = UTC
MEAN_ELEMENT_THEORY = SGP/SGP4

EPOCH          = 2025-12-01T20:09:43.376832
MEAN_MOTION    = 12.41951058
ECCENTRICITY   = .0008181
INCLINATION    = 82.4980
RA_OF_ASC_NODE = 293.2183
ARG_OF_PERICENTER = 314.6636
MEAN_ANOMALY   = 45.3776

EPHEMERIS_TYPE = 0
CLASSIFICATION_TYPE = U
NORAD_CAT_ID   = 66647
ELEMENT_SET_NO = 999
REV_AT_EPOCH   = 78
BSTAR          = -.468E-4
MEAN_MOTION_DOT = .3E-7
MEAN_MOTION_DDOT = 0

CCSDS_OMM_VERS = 2.0
CREATION_DATE  = 
ORIGINATOR     = 

OBJECT_NAME    = COSMOS 2598 (RODNIK-S 23)
OBJECT_ID      = 2025-273B
CENTER_NAME    = EARTH
REF_FRAME      = TEME
TIME_SYSTEM    = UTC
MEAN_ELEMENT_THEORY = SGP/SGP4

EPOCH          = 2025-12-01T22:03:31.646592
MEAN_MOTION    = 12.42253016
ECCENTRICITY   = .000826
INCLINATION    = 82.5022
RA_OF_ASC_NODE = 293.1751
ARG_OF_PERICENTER = 303.1461
MEAN_ANOMALY   = 56.8825

EPHEMERIS_TYPE = 0
CLASSIFICATION_TYPE = U
NORAD_CAT_ID   = 66648
ELEMENT_SET_NO = 999
REV_AT_EPOCH   = 79
BSTAR          = -.27986E-3
MEAN_MOTION_DOT = -.29E-6
MEAN_MOTION_DDOT = 0

